{
  "type": "FeatureCollection",
  "features": [
    {
      "type": "Feature",
      "properties": {
        "norad_id": 43057,
        "name": "GSAT0217 (GALILEO 21)",
        "group": "gnss",
        "lat": 51.74386945316311,
        "lon": -71.31599678235533,
        "alt_km": 23215.798566666606,
        "timestamp": "2025-12-13T16:48:32.953825+00:00",
        "meta_object_name": "GSAT0217 (GALILEO 21)",
        "meta_object_id": "2017-079C",
        "meta_epoch": "2025-12-11T19:42:59.251104",
        "meta_mean_motion": 1.7047397,
        "meta_eccentricity": 0.00027961,
        "meta_inclination": 55.1287,
        "meta_ra_of_asc_node": 226.661,
        "meta_arg_of_pericenter": 345.2118,
        "meta_mean_anomaly": 14.8584,
        "meta_ephemeris_type": 0,
        "meta_classification_type": "U",
        "meta_norad_cat_id": 43057,
        "meta_element_set_no": 999,
        "meta_rev_at_epoch": 4979,
        "meta_bstar": 0,
        "meta_mean_motion_dot": 1.2e-07,
        "meta_mean_motion_ddot": 0,
        "tle_line1": "1 43057U 17079C   25345.82151911  .00000012  00000+0  00000+0 0  9991",
        "tle_line2": "2 43057  55.1287 226.6610 0002796 345.2118  14.8584  1.70473970 49797"
      },
      "geometry": {
        "type": "Point",
        "coordinates": [
          -71.31599678235533,
          51.74386945316311
        ]
      }
    },
    {
      "type": "Feature",
      "properties": {
        "norad_id": 43058,
        "name": "GSAT0218 (GALILEO 22)",
        "group": "gnss",
        "lat": -46.40575789219498,
        "lon": 179.5853054501173,
        "alt_km": 23219.160744375135,
        "timestamp": "2025-12-13T16:48:32.953844+00:00",
        "meta_object_name": "GSAT0218 (GALILEO 22)",
        "meta_object_id": "2017-079D",
        "meta_epoch": "2025-12-12T15:04:31.769472",
        "meta_mean_motion": 1.70474063,
        "meta_eccentricity": 0.00028411,
        "meta_inclination": 55.1287,
        "meta_ra_of_asc_node": 226.6365,
        "meta_arg_of_pericenter": 306.3289,
        "meta_mean_anomaly": 53.7237,
        "meta_ephemeris_type": 0,
        "meta_classification_type": "U",
        "meta_norad_cat_id": 43058,
        "meta_element_set_no": 999,
        "meta_rev_at_epoch": 4983,
        "meta_bstar": 0,
        "meta_mean_motion_dot": 1.7e-07,
        "meta_mean_motion_ddot": 0,
        "tle_line1": "1 43058U 17079D   25346.62814548  .00000017  00000+0  00000+0 0  9998",
        "tle_line2": "2 43058  55.1287 226.6365 0002841 306.3289  53.7237  1.70474063 49839"
      },
      "geometry": {
        "type": "Point",
        "coordinates": [
          179.5853054501173,
          -46.40575789219498
        ]
      }
    },
    {
      "type": "Feature",
      "properties": {
        "norad_id": 43107,
        "name": "BEIDOU-3 M7 (C27)",
        "group": "gnss",
        "lat": 54.484835945123315,
        "lon": 40.33007838682079,
        "alt_km": 21514.750352531588,
        "timestamp": "2025-12-13T16:48:32.953864+00:00",
        "meta_object_name": "BEIDOU-3 M7 (C27)",
        "meta_object_id": "2018-003A",
        "meta_epoch": "2025-12-10T08:14:11.609952",
        "meta_mean_motion": 1.86232173,
        "meta_eccentricity": 0.00026083,
        "meta_inclination": 54.4988,
        "meta_ra_of_asc_node": 308.8983,
        "meta_arg_of_pericenter": 70.7786,
        "meta_mean_anomaly": 289.2405,
        "meta_ephemeris_type": 0,
        "meta_classification_type": "U",
        "meta_norad_cat_id": 43107,
        "meta_element_set_no": 999,
        "meta_rev_at_epoch": 5383,
        "meta_bstar": 0,
        "meta_mean_motion_dot": -8.2e-07,
        "meta_mean_motion_ddot": 0,
        "tle_line1": "1 43107U 18003A   25344.34318993 -.00000082  00000+0  00000+0 0  9994",
        "tle_line2": "2 43107  54.4988 308.8983 0002608  70.7786 289.2405  1.86232173 53837"
      },
      "geometry": {
        "type": "Point",
        "coordinates": [
          40.33007838682079,
          54.484835945123315
        ]
      }
    },
    {
      "type": "Feature",
      "properties": {
        "norad_id": 43108,
        "name": "BEIDOU-3 M8 (C28)",
        "group": "gnss",
        "lat": 40.07096786779983,
        "lon": 91.8533145966141,
        "alt_km": 21534.37342290955,
        "timestamp": "2025-12-13T16:48:32.953881+00:00",
        "meta_object_name": "BEIDOU-3 M8 (C28)",
        "meta_object_id": "2018-003B",
        "meta_epoch": "2025-12-11T21:34:27.940800",
        "meta_mean_motion": 1.86230629,
        "meta_eccentricity": 0.00047751,
        "meta_inclination": 54.4899,
        "meta_ra_of_asc_node": 308.8263,
        "meta_arg_of_pericenter": 274.4182,
        "meta_mean_anomaly": 85.5183,
        "meta_ephemeris_type": 0,
        "meta_classification_type": "U",
        "meta_norad_cat_id": 43108,
        "meta_element_set_no": 999,
        "meta_rev_at_epoch": 5387,
        "meta_bstar": 0,
        "meta_mean_motion_dot": -9e-07,
        "meta_mean_motion_ddot": 0,
        "tle_line1": "1 43108U 18003B   25345.89893450 -.00000090  00000+0  00000+0 0  9991",
        "tle_line2": "2 43108  54.4899 308.8263 0004775 274.4182  85.5183  1.86230629 53878"
      },
      "geometry": {
        "type": "Point",
        "coordinates": [
          91.8533145966141,
          40.07096786779983
        ]
      }
    },
    {
      "type": "Feature",
      "properties": {
        "norad_id": 43207,
        "name": "BEIDOU-3 M4 (C22)",
        "group": "gnss",
        "lat": -9.600587060505125,
        "lon": -104.29471693807069,
        "alt_km": 21541.148142670132,
        "timestamp": "2025-12-13T16:48:32.953901+00:00",
        "meta_object_name": "BEIDOU-3 M4 (C22)",
        "meta_object_id": "2018-018A",
        "meta_epoch": "2025-12-10T17:31:13.270944",
        "meta_mean_motion": 1.86230984,
        "meta_eccentricity": 0.00041357,
        "meta_inclination": 56.4844,
        "meta_ra_of_asc_node": 69.3703,
        "meta_arg_of_pericenter": 10.5342,
        "meta_mean_anomaly": 349.4961,
        "meta_ephemeris_type": 0,
        "meta_classification_type": "U",
        "meta_norad_cat_id": 43207,
        "meta_element_set_no": 999,
        "meta_rev_at_epoch": 5323,
        "meta_bstar": 0,
        "meta_mean_motion_dot": -5.7e-07,
        "meta_mean_motion_ddot": 0,
        "tle_line1": "1 43207U 18018A   25344.73001471 -.00000057  00000+0  00000+0 0  9996",
        "tle_line2": "2 43207  56.4844  69.3703 0004135  10.5342 349.4961  1.86230984 53235"
      },
      "geometry": {
        "type": "Point",
        "coordinates": [
          -104.29471693807069,
          -9.600587060505125
        ]
      }
    },
    {
      "type": "Feature",
      "properties": {
        "norad_id": 43208,
        "name": "BEIDOU-3 M3 (C21)",
        "group": "gnss",
        "lat": 27.119108221320012,
        "lon": -130.5277209748412,
        "alt_km": 21542.808112071794,
        "timestamp": "2025-12-13T16:48:32.953935+00:00",
        "meta_object_name": "BEIDOU-3 M3 (C21)",
        "meta_object_id": "2018-018B",
        "meta_epoch": "2025-12-10T19:07:00.567840",
        "meta_mean_motion": 1.8623124,
        "meta_eccentricity": 0.0006564,
        "meta_inclination": 56.484,
        "meta_ra_of_asc_node": 69.3721,
        "meta_arg_of_pericenter": 317.0111,
        "meta_mean_anomaly": 42.9593,
        "meta_ephemeris_type": 0,
        "meta_classification_type": "U",
        "meta_norad_cat_id": 43208,
        "meta_element_set_no": 999,
        "meta_rev_at_epoch": 5323,
        "meta_bstar": 0,
        "meta_mean_motion_dot": -5.7e-07,
        "meta_mean_motion_ddot": 0,
        "tle_line1": "1 43208U 18018B   25344.79653435 -.00000057  00000+0  00000+0 0  9996",
        "tle_line2": "2 43208  56.4840  69.3721 0006564 317.0111  42.9593  1.86231240 53231"
      },
      "geometry": {
        "type": "Point",
        "coordinates": [
          -130.5277209748412,
          27.119108221320012
        ]
      }
    },
    {
      "type": "Feature",
      "properties": {
        "norad_id": 43245,
        "name": "BEIDOU-3 M9 (C29)",
        "group": "gnss",
        "lat": 1.5740779899857724,
        "lon": -52.456560422210316,
        "alt_km": 21528.222303127994,
        "timestamp": "2025-12-13T16:48:32.953956+00:00",
        "meta_object_name": "BEIDOU-3 M9 (C29)",
        "meta_object_id": "2018-029A",
        "meta_epoch": "2025-12-09T09:38:36.109248",
        "meta_mean_motion": 1.86227964,
        "meta_eccentricity": 0.00016746,
        "meta_inclination": 54.3687,
        "meta_ra_of_asc_node": 306.5834,
        "meta_arg_of_pericenter": 274.0787,
        "meta_mean_anomaly": 85.8921,
        "meta_ephemeris_type": 0,
        "meta_classification_type": "U",
        "meta_norad_cat_id": 43245,
        "meta_element_set_no": 999,
        "meta_rev_at_epoch": 5236,
        "meta_bstar": 0,
        "meta_mean_motion_dot": -7.6e-07,
        "meta_mean_motion_ddot": 0,
        "tle_line1": "1 43245U 18029A   25343.40180682 -.00000076  00000+0  00000+0 0  9996",
        "tle_line2": "2 43245  54.3687 306.5834 0001674 274.0787  85.8921  1.86227964 52369"
      },
      "geometry": {
        "type": "Point",
        "coordinates": [
          -52.456560422210316,
          1.5740779899857724
        ]
      }
    }
  ]
}